{
  "norad_id": 63257,
  "name": "ICEYE-X51",
  "history": [
    {
      "epoch": "2026-04-11T18:56:11.811840Z",
      "apogee_km": 565.5824365903327,
      "perigee_km": 562.7152725323986,
      "latitude_deg": 1.6997425494322905e-05,
      "longitude_deg": -126.96509589654957,
      "height_km": 566.6762481271891,
      "semi_major_axis_km": 6942.285854561365,
      "eccentricity": 0.0002065,
      "inclination_deg": 97.7415,
      "raan_deg": 357.0876,
      "arg_perigee_deg": 68.5604,
      "mean_anomaly_deg": 291.584,
      "mean_motion_rev_day": 15.00890552
    },
    {
      "epoch": "2026-04-13T06:08:16.388736Z",
      "apogee_km": 565.588861807265,
      "perigee_km": 562.758204110557,
      "latitude_deg": -4.664323194891513e-05,
      "longitude_deg": 65.03107677521807,
      "height_km": 566.7145486704374,
      "semi_major_axis_km": 6942.310532958911,
      "eccentricity": 0.00020387,
      "inclination_deg": 97.7421,
      "raan_deg": 358.5485,
      "arg_perigee_deg": 68.8615,
      "mean_anomaly_deg": 291.2826,
      "mean_motion_rev_day": 15.00882549
    },
    {
      "epoch": "2026-04-14T18:56:20.622048Z",
      "apogee_km": 565.5714139440015,
      "perigee_km": 562.7334060331978,
      "latitude_deg": 1.649865280678089e-05,
      "longitude_deg": -126.9703395240361,
      "height_km": 566.6308444711179,
      "semi_major_axis_km": 6942.289409988599,
      "eccentricity": 0.0002044,
      "inclination_deg": 97.7423,
      "raan_deg": 0.0761,
      "arg_perigee_deg": 66.183,
      "mean_anomaly_deg": 293.9608,
      "mean_motion_rev_day": 15.00889399
    },
    {
      "epoch": "2026-04-15T18:56:23.809344Z",
      "apogee_km": 565.5844627173738,
      "perigee_km": 562.7825421625894,
      "latitude_deg": -3.3314040148997306e-05,
      "longitude_deg": -126.97309262750495,
      "height_km": 566.7007413849742,
      "semi_major_axis_km": 6942.320502439981,
      "eccentricity": 0.0002018,
      "inclination_deg": 97.7425,
      "raan_deg": 1.0723,
      "arg_perigee_deg": 67.5844,
      "mean_anomaly_deg": 292.5593,
      "mean_motion_rev_day": 15.00879316
    },
    {
      "epoch": "2026-04-16T18:56:26.863584Z",
      "apogee_km": 565.6041602253335,
      "perigee_km": 562.7314345001851,
      "latitude_deg": 3.407624060851016e-05,
      "longitude_deg": -126.9752056448688,
      "height_km": 566.6152793330751,
      "semi_major_axis_km": 6942.304797362759,
      "eccentricity": 0.0002069,
      "inclination_deg": 97.7426,
      "raan_deg": 2.0686,
      "arg_perigee_deg": 65.1364,
      "mean_anomaly_deg": 295.0075,
      "mean_motion_rev_day": 15.00884409
    },
    {
      "epoch": "2026-04-17T22:08:29.915808Z",
      "apogee_km": 565.6126242594801,
      "perigee_km": 562.6795096636888,
      "latitude_deg": 7.066978500014797e-05,
      "longitude_deg": -174.97622585324225,
      "height_km": 566.5693351291087,
      "semi_major_axis_km": 6942.283066961584,
      "eccentricity": 0.00021125,
      "inclination_deg": 97.7427,
      "raan_deg": 3.1974,
      "arg_perigee_deg": 64.642,
      "mean_anomaly_deg": 295.5023,
      "mean_motion_rev_day": 15.00891456
    },
    {
      "epoch": "2026-04-18T17:20:31.816608Z",
      "apogee_km": 565.6086748255493,
      "perigee_km": 562.6595980467919,
      "latitude_deg": 3.302417418501471e-05,
      "longitude_deg": -102.9756783447607,
      "height_km": 566.5313880475832,
      "semi_major_axis_km": 6942.27113643617,
      "eccentricity": 0.0002124,
      "inclination_deg": 97.7429,
      "raan_deg": 3.9944,
      "arg_perigee_deg": 63.6659,
      "mean_anomaly_deg": 296.4783,
      "mean_motion_rev_day": 15.00895325
    },
    {
      "epoch": "2026-04-19T18:56:33.853344Z",
      "apogee_km": 565.5498954347458,
      "perigee_km": 562.6633105446226,
      "latitude_deg": -2.722338749613785e-06,
      "longitude_deg": -126.97283878248787,
      "height_km": 566.5297784949955,
      "semi_major_axis_km": 6942.243602989684,
      "eccentricity": 0.0002079,
      "inclination_deg": 97.7431,
      "raan_deg": 5.0571,
      "arg_perigee_deg": 64.1958,
      "mean_anomaly_deg": 295.948,
      "mean_motion_rev_day": 15.00904254
    },
    {
      "epoch": "2026-04-20T12:32:35.056608Z",
      "apogee_km": 565.5877925091372,
      "perigee_km": 562.6009668803363,
      "latitude_deg": -7.622260354150379e-06,
      "longitude_deg": -30.970273183550567,
      "height_km": 566.4548683981603,
      "semi_major_axis_km": 6942.2313796947365,
      "eccentricity": 0.00021512,
      "inclination_deg": 97.7432,
      "raan_deg": 5.7875,
      "arg_perigee_deg": 62.444,
      "mean_anomaly_deg": 297.7002,
      "mean_motion_rev_day": 15.00908218
    },
    {
      "epoch": "2026-04-21T18:56:36.515328Z",
      "apogee_km": 565.554400823984,
      "perigee_km": 562.5775841807999,
      "latitude_deg": -7.075980582867853e-06,
      "longitude_deg": -126.96275465779162,
      "height_km": 566.4142259554438,
      "semi_major_axis_km": 6942.202992502392,
      "eccentricity": 0.0002144,
      "inclination_deg": 97.7434,
      "raan_deg": 7.0496,
      "arg_perigee_deg": 61.808,
      "mean_anomaly_deg": 298.336,
      "mean_motion_rev_day": 15.00917424
    },
    {
      "epoch": "2026-04-22T17:20:38.345856Z",
      "apogee_km": 565.5843068704335,
      "perigee_km": 562.6949313415616,
      "latitude_deg": 5.725731139547274e-05,
      "longitude_deg": -102.96044905983669,
      "height_km": 566.5401648397938,
      "semi_major_axis_km": 6942.276619105997,
      "eccentricity": 0.0002081,
      "inclination_deg": 97.7437,
      "raan_deg": 7.9795,
      "arg_perigee_deg": 63.2226,
      "mean_anomaly_deg": 296.9211,
      "mean_motion_rev_day": 15.00893547
    },
    {
      "epoch": "2026-04-23T12:32:40.430688Z",
      "apogee_km": 565.5977218553126,
      "perigee_km": 562.7406851603209,
      "latitude_deg": -1.3771060000930769e-05,
      "longitude_deg": -30.96066762136357,
      "height_km": 566.6028009893392,
      "semi_major_axis_km": 6942.3062035078165,
      "eccentricity": 0.00020577,
      "inclination_deg": 97.7439,
      "raan_deg": 8.7765,
      "arg_perigee_deg": 64.3743,
      "mean_anomaly_deg": 295.7693,
      "mean_motion_rev_day": 15.00883953
    }
  ]
}